NORAD_CAT_ID,OBJECT_NAME,OBJECT_TYPE,EPOCH,MEAN_MOTION,ECCENTRICITY,INCLINATION,RA_OF_ASC_NODE,ARG_OF_PERICENTER,MEAN_ANOMALY,BSTAR,MEAN_MOTION_DOT,MEAN_MOTION_DDOT,TLE_LINE0,TLE_LINE1,TLE_LINE2,SEMIMAJOR_AXIS,PERIOD,APOGEE,PERIGEE,DECAYED
53998.0,STARLINK-5128,PAYLOAD,2024-03-15 19:16:30,15.08840746,0.0001447,53.2139,223.5341,88.9618,271.154,7.5339e-05,9.11e-06,0.0,0 STARLINK-5128,1 53998U 22125AL  24075.80313344  .00000911  00000-0  75339-4 0  9992,2 53998  53.2139 223.5341 0001447  88.9618 271.1540 15.08840746 80185,6917.878,95.438,540.744,538.742,0.0
53998.0,STARLINK-5128,PAYLOAD,2024-03-16 14:21:08,15.08843389,0.0001918,53.2153,219.9656,96.0898,264.0312,-4.3786e-05,-9.85e-06,0.0,0 STARLINK-5128,1 53998U 22125AL  24076.59801320 -.00000985  00000-0 -43786-4 0  9999,2 53998  53.2153 219.9656 0001918  96.0898 264.0312 15.08843389 80300,6917.87,95.437,541.062,538.408,0.0
53998.0,STARLINK-5128,PAYLOAD,2024-03-16 15:56:32,15.08834199,0.0001704,53.2158,219.6717,79.9514,280.1671,0.00015573,2.191e-05,0.0,0 STARLINK-5128,1 53998U 22125AL  24076.66425970  .00002191  00000-0  15573-3 0  9991,2 53998  53.2158 219.6717 0001704  79.9514 280.1671 15.08834199 80382,6917.898,95.438,540.942,538.584,0.0
53998.0,STARLINK-5128,PAYLOAD,2024-03-17 14:11:55,15.08841857,0.0001592,53.2174,215.5086,95.6959,264.4214,0.00012593,1.717e-05,0.0,0 STARLINK-5128,1 53998U 22125AL  24077.59161443  .00001717  00000-0  12593-3 0  9998,2 53998  53.2174 215.5086 0001592  95.6959 264.4214 15.08841857 80452,6917.875,95.437,540.841,538.638,0.0
53998.0,STARLINK-5128,PAYLOAD,2024-03-17 15:47:18,15.0884209,0.000151,53.2176,215.2118,91.0722,269.0443,0.00012249,1.662e-05,0.0,0 STARLINK-5128,1 53998U 22125AL  24077.65785450  .00001662  00000-0  12249-3 0  9992,2 53998  53.2176 215.2118 0001510  91.0722 269.0443 15.08842090 80461,6917.874,95.437,540.784,538.694,0.0
53998.0,STARLINK-5128,PAYLOAD,2024-03-18 12:27:19,15.08838338,0.0001503,53.2181,211.3456,98.1765,261.9398,8.1249e-05,1.005e-05,0.0,0 STARLINK-5128,1 53998U 22125AL  24078.51897902  .00001005  00000-0  81249-4 0  9992,2 53998  53.2181 211.3456 0001503  98.1765 261.9398 15.08838338 80668,6917.885,95.438,540.79,538.711,0.0
53998.0,STARLINK-5128,PAYLOAD,2024-03-18 18:48:51,15.08845689,0.000126,53.2164,210.1486,104.8874,255.2258,5.3204e-05,5.59e-06,0.0,0 STARLINK-5128,1 53998U 22125AL  24078.78393311  .00000559  00000-0  53204-4 0  9999,2 53998  53.2164 210.1486 0001260 104.8874 255.2258 15.08845689 80630,6917.863,95.437,540.6,538.856,0.0
53998.0,STARLINK-5128,PAYLOAD,2024-03-19 12:18:06,15.08845701,0.0001315,53.217,206.8789,77.0422,283.0717,4.8825e-05,4.89e-06,0.0,0 STARLINK-5128,1 53998U 22125AL  24079.51257670  .00000489  00000-0  48825-4 0  9993,2 53998  53.2170 206.8789 0001315  77.0422 283.0717 15.08845701 80742,6917.863,95.437,540.638,538.818,0.0
53998.0,STARLINK-5128,PAYLOAD,2024-03-20 07:22:45,15.08825477,0.0001711,53.2157,203.3066,124.3198,235.7957,-5.0376e-05,-1.089e-05,0.0,0 STARLINK-5128,1 53998U 22125AL  24080.30746686 -.00001089  00000-0 -50376-4 0  9995,2 53998  53.2157 203.3066 0001711 124.3198 235.7957 15.08825477 80932,6917.925,95.438,540.973,538.606,0.0
53998.0,STARLINK-5128,PAYLOAD,2024-03-20 13:44:17,15.08837505,0.0001305,53.2162,202.1256,83.8585,276.2556,-9.2955e-05,-1.767e-05,0.0,0 STARLINK-5128,1 53998U 22125AL  24080.57242218 -.00001767  00000-0 -92955-4 0  9998,2 53998  53.2162 202.1256 0001305  83.8585 276.2556 15.08837505 80901,6917.888,95.438,540.656,538.85,0.0
53998.0,STARLINK-5128,PAYLOAD,2024-03-21 13:35:04,15.08846701,0.0001701,53.2164,197.6635,87.4142,272.7045,0.00025445,3.765e-05,0.0,0 STARLINK-5128,1 53998U 22125AL  24081.56602123  .00003765  00000-0  25445-3 0  9990,2 53998  53.2164 197.6635 0001701  87.4142 272.7045 15.08846701 81050,6917.86,95.437,540.902,538.548,0.0
53998.0,STARLINK-5128,PAYLOAD,2024-03-21 16:45:50,15.08850762,0.0001803,53.2169,197.0681,86.8995,273.2204,0.00033798,5.097e-05,0.0,0 STARLINK-5128,1 53998U 22125AL  24081.69850117  .00005097  00000-0  33798-3 0  9992,2 53998  53.2169 197.0681 0001803  86.8995 273.2204 15.08850762 81147,6917.847,95.437,540.96,538.465,0.0
53998.0,STARLINK-5128,PAYLOAD,2024-03-22 13:25:50,15.08860141,0.0001513,53.2158,193.2066,90.3294,269.7872,0.00037118,5.627e-05,0.0,0 STARLINK-5128,1 53998U 22125AL  24082.55961126  .00005627  00000-0  37118-3 0  9990,2 53998  53.2158 193.2066 0001513  90.3294 269.7872 15.08860141 81200,6917.819,95.436,540.73,538.637,0.0
53998.0,STARLINK-5128,PAYLOAD,2024-03-22 15:01:12,15.08874396,0.0001309,53.2158,192.9054,113.3828,246.7302,0.00064369,9.981e-05,0.0,0 STARLINK-5128,1 53998U 22125AL  24082.62584470  .00009981  00000-0  64369-3 0  9996,2 53998  53.2158 192.9054 0001309 113.3828 246.7302 15.08874396 81283,6917.775,95.435,540.546,538.735,0.0
53998.0,STARLINK-5128,PAYLOAD,2024-03-23 13:16:38,15.08829781,0.0001573,53.2175,188.7426,99.2186,260.8984,-4.6086e-05,-1.021e-05,0.0,0 STARLINK-5128,1 53998U 22125AL  24083.55322095 -.00001021  00000-0 -46086-4 0  9998,2 53998  53.2175 188.7426 0001573  99.2186 260.8984 15.08829781 81427,6917.912,95.438,540.865,538.688,0.0
53998.0,STARLINK-5128,PAYLOAD,2024-03-24 13:07:24,15.08881494,0.0001684,53.2182,184.2844,93.2271,266.8914,0.0019067,0.00030222,0.0,0 STARLINK-5128,1 53998U 22125AL  24084.54681613  .00030222  00000-0  19067-2 0  9992,2 53998  53.2182 184.2844 0001684  93.2271 266.8914 15.08881494 81576,6917.754,95.435,540.784,538.454,0.0
53998.0,STARLINK-5128,PAYLOAD,2024-03-25 12:58:11,15.0884912,0.0001386,53.2168,179.8187,94.3821,265.7329,0.000259,3.837e-05,0.0,0 STARLINK-5128,1 53998U 22125AL  24085.54041453  .00003837  00000-0  25900-3 0  9991,2 53998  53.2168 179.8187 0001386  94.3821 265.7329 15.08849120 81727,6917.853,95.437,540.676,538.759,0.0
53998.0,STARLINK-5128,PAYLOAD,2024-03-26 12:48:59,15.0883363,0.0001451,53.217,175.3628,77.5178,282.5976,0.00011412,1.528e-05,0.0,0 STARLINK-5128,1 53998U 22125AL  24086.53402424  .00001528  00000-0  11412-3 0  9998,2 53998  53.2170 175.3628 0001451  77.5178 282.5976 15.08833630 81872,6917.9,95.438,540.769,538.761,0.0
53998.0,STARLINK-5128,PAYLOAD,2024-03-26 22:21:19,15.08829253,0.0001428,53.2162,173.5783,72.3894,287.7254,0.00025544,3.779e-05,0.0,0 STARLINK-5128,1 53998U 22125AL  24086.93147020  .00003779  00000-0  25544-3 0  9991,2 53998  53.2162 173.5783 0001428  72.3894 287.7254 15.08829253 81868,6917.913,95.438,540.766,538.79,0.0
53998.0,STARLINK-5128,PAYLOAD,2024-03-27 12:39:46,15.08850932,0.0001339,53.2164,170.9022,72.1461,287.9677,0.00060704,9.389e-05,0.0,0 STARLINK-5128,1 53998U 22125AL  24087.52762558  .00009389  00000-0  60704-3 0  9996,2 53998  53.2164 170.9022 0001339  72.1461 287.9677 15.08850932 81955,6917.847,95.437,540.638,538.786,0.0
53998.0,STARLINK-5128,PAYLOAD,2024-03-27 22:12:05,15.08840669,0.0001407,53.2161,169.1183,74.5851,285.5296,0.00024364,3.592e-05,0.0,0 STARLINK-5128,1 53998U 22125AL  24087.92506864  .00003592  00000-0  24364-3 0  9998,2 53998  53.2161 169.1183 0001407  74.5851 285.5296 15.08840669 82010,6917.878,95.438,540.717,538.77,0.0
53998.0,STARLINK-5128,PAYLOAD,2024-03-28 12:30:34,15.08843788,0.0001294,53.2157,166.4417,65.5631,294.5496,0.00025491,3.772e-05,0.0,0 STARLINK-5128,1 53998U 22125AL  24088.52122972  .00003772  00000-0  25491-3 0  9991,2 53998  53.2157 166.4417 0001294  65.5631 294.5496 15.08843788 82102,6917.869,95.437,540.629,538.839,0.0
53998.0,STARLINK-5128,PAYLOAD,2024-03-28 22:02:53,15.08840117,0.0001468,53.2157,164.6608,88.7932,271.3228,8.8254e-05,1.117e-05,0.0,0 STARLINK-5128,1 53998U 22125AL  24088.91867079  .00001117  00000-0  88254-4 0  9996,2 53998  53.2157 164.6608 0001468  88.7932 271.3228 15.08840117 82163,6917.88,95.438,540.761,538.729,0.0
53998.0,STARLINK-5128,PAYLOAD,2024-03-29 13:56:44,15.08849604,0.0001541,53.2157,161.6857,84.6474,275.4693,9.7404e-05,1.263e-05,0.0,0 STARLINK-5128,1 53998U 22125AL  24089.58106876  .00001263  00000-0  97404-4 0  9990,2 53998  53.2157 161.6857 0001541  84.6474 275.4693 15.08849604 82266,6917.851,95.437,540.782,538.65,0.0
53998.0,STARLINK-5128,PAYLOAD,2024-03-29 21:53:40,15.08846169,0.0001684,53.2164,160.196,75.0288,285.089,-7.3973e-07,-3e-06,0.0,0 STARLINK-5128,1 53998U 22125AL  24089.91227028 -.00000300  00000-0 -73973-6 0  9990,2 53998  53.2164 160.1960 0001684  75.0288 285.0890 15.08846169 82313,6917.862,95.437,540.892,538.562,0.0
53998.0,STARLINK-5128,PAYLOAD,2024-03-30 04:15:13,15.08839333,0.0001699,53.2162,159.0098,80.8879,279.2305,0.00016466,2.333e-05,0.0,0 STARLINK-5128,1 53998U 22125AL  24090.17723566  .00002333  00000-0  16466-3 0  9995,2 53998  53.2162 159.0098 0001699  80.8879 279.2305 15.08839333 82429,6917.882,95.438,540.923,538.572,0.0
53998.0,STARLINK-5128,PAYLOAD,2024-03-30 12:12:08,15.08844695,0.0001606,53.2155,157.523,79.488,280.6293,0.00012387,1.684e-05,0.0,0 STARLINK-5128,1 53998U 22125AL  24090.50843283  .00001684  00000-0  12387-3 0  9997,2 53998  53.2155 157.5230 0001606  79.4880 280.6293 15.08844695 82403,6917.866,95.437,540.842,538.62,0.0
53998.0,STARLINK-5128,PAYLOAD,2024-03-30 21:44:27,15.08844835,0.0001563,53.2152,155.7386,78.8207,281.2961,0.00014525,2.025e-05,0.0,0 STARLINK-5128,1 53998U 22125AL  24090.90587233  .00002025  00000-0  14525-3 0  9997,2 53998  53.2152 155.7386 0001563  78.8207 281.2961 15.08844835 82461,6917.866,95.437,540.812,538.649,0.0
53998.0,STARLINK-5128,PAYLOAD,2024-03-31 10:27:32,15.08849253,0.0001561,53.2163,153.3606,82.6332,277.4838,6.1624e-05,6.93e-06,0.0,0 STARLINK-5128,1 53998U 22125AL  24091.43579095  .00000693  00000-0  61624-4 0  9995,2 53998  53.2163 153.3606 0001561  82.6332 277.4838 15.08849253 82618,6917.852,95.437,540.797,538.637,0.0
53998.0,STARLINK-5128,PAYLOAD,2024-04-01 10:18:20,15.08835704,0.0001504,53.2148,148.8981,87.4703,272.6461,5.7637e-05,6.29e-06,0.0,0 STARLINK-5128,1 53998U 22125AL  24092.42939862  .00000629  00000-0  57637-4 0  9995,2 53998  53.2148 148.8981 0001504  87.4703 272.6461 15.08835704 82769,6917.894,95.438,540.799,538.718,0.0
